{
  "type": "FeatureCollection",
  "features": [
    {
      "type": "Feature",
      "properties": {
        "norad_id": 65731,
        "name": "1998-067XK",
        "group": "stations",
        "lat": 26.451820858310885,
        "lon": 161.74193733175167,
        "alt_km": 371.11361500880776,
        "timestamp": "2025-12-12T11:38:30.189815+00:00",
        "meta_object_name": "1998-067XK",
        "meta_object_id": "1998-067XK",
        "meta_epoch": "2025-12-12T03:50:05.091360",
        "meta_mean_motion": 15.65576391,
        "meta_eccentricity": 0.0005053,
        "meta_inclination": 51.6278,
        "meta_ra_of_asc_node": 140.1747,
        "meta_arg_of_pericenter": 242.2687,
        "meta_mean_anomaly": 117.7796,
        "meta_ephemeris_type": 0,
        "meta_classification_type": "U",
        "meta_norad_cat_id": 65731,
        "meta_element_set_no": 999,
        "meta_rev_at_epoch": 1305,
        "meta_bstar": 0.0011399,
        "meta_mean_motion_dot": 0.00118061,
        "meta_mean_motion_ddot": 0,
        "tle_line1": "1 65731U 98067XK  25346.15978115  .00118061  00000+0  11399-2 0  9990",
        "tle_line2": "2 65731  51.6278 140.1747 0005053 242.2687 117.7796 15.65576391 13056"
      },
      "geometry": {
        "type": "Point",
        "coordinates": [
          161.74193733175167,
          26.451820858310885
        ]
      }
    },
    {
      "type": "Feature",
      "properties": {
        "norad_id": 65732,
        "name": "RSP-03",
        "group": "stations",
        "lat": 3.5523411409469614,
        "lon": 140.6458562940825,
        "alt_km": 365.06558530462917,
        "timestamp": "2025-12-12T11:38:30.189826+00:00",
        "meta_object_name": "RSP-03",
        "meta_object_id": "1998-067XL",
        "meta_epoch": "2025-12-11T11:09:18.310464",
        "meta_mean_motion": 15.68184189,
        "meta_eccentricity": 0.00058259,
        "meta_inclination": 51.626,
        "meta_ra_of_asc_node": 143.0256,
        "meta_arg_of_pericenter": 242.1359,
        "meta_mean_anomaly": 117.9048,
        "meta_ephemeris_type": 0,
        "meta_classification_type": "U",
        "meta_norad_cat_id": 65732,
        "meta_element_set_no": 999,
        "meta_rev_at_epoch": 1296,
        "meta_bstar": 0.0016947067,
        "meta_mean_motion_dot": 0.00197326,
        "meta_mean_motion_ddot": 0,
        "tle_line1": "1 65732U 98067XL  25345.46479526  .00197326  00000+0  16947-2 0  9991",
        "tle_line2": "2 65732  51.6260 143.0256 0005825 242.1359 117.9048 15.68184189 12961"
      },
      "geometry": {
        "type": "Point",
        "coordinates": [
          140.6458562940825,
          3.5523411409469614
        ]
      }
    },
    {
      "type": "Feature",
      "properties": {
        "norad_id": 65733,
        "name": "GHS-01",
        "group": "stations",
        "lat": -51.19609616984621,
        "lon": 56.303531824271886,
        "alt_km": 345.6605413785255,
        "timestamp": "2025-12-12T11:38:30.189836+00:00",
        "meta_object_name": "GHS-01",
        "meta_object_id": "1998-067XM",
        "meta_epoch": "2025-12-11T17:42:59.976288",
        "meta_mean_motion": 15.74255219,
        "meta_eccentricity": 0.0007045,
        "meta_inclination": 51.6266,
        "meta_ra_of_asc_node": 140.35,
        "meta_arg_of_pericenter": 274.7166,
        "meta_mean_anomaly": 85.3028,
        "meta_ephemeris_type": 0,
        "meta_classification_type": "U",
        "meta_norad_cat_id": 65733,
        "meta_element_set_no": 999,
        "meta_rev_at_epoch": 1302,
        "meta_bstar": 0.0015474625,
        "meta_mean_motion_dot": 0.002337,
        "meta_mean_motion_ddot": 0,
        "tle_line1": "1 65733U 98067XM  25345.73819417  .00233700  00000+0  15475-2 0  9991",
        "tle_line2": "2 65733  51.6266 140.3500 0007045 274.7166  85.3028 15.74255219 13027"
      },
      "geometry": {
        "type": "Point",
        "coordinates": [
          56.303531824271886,
          -51.19609616984621
        ]
      }
    },
    {
      "type": "Feature",
      "properties": {
        "norad_id": 65941,
        "name": "YOTSUBA-KULOVER",
        "group": "stations",
        "lat": 14.353201785036687,
        "lon": -50.44127383033044,
        "alt_km": 387.9663144223414,
        "timestamp": "2025-12-12T11:38:30.189849+00:00",
        "meta_object_name": "YOTSUBA-KULOVER",
        "meta_object_id": "1998-067XN",
        "meta_epoch": "2025-12-11T19:34:16.498272",
        "meta_mean_motion": 15.59284629,
        "meta_eccentricity": 0.00014791,
        "meta_inclination": 51.6283,
        "meta_ra_of_asc_node": 144.6232,
        "meta_arg_of_pericenter": 240.6156,
        "meta_mean_anomaly": 119.469,
        "meta_ephemeris_type": 0,
        "meta_classification_type": "U",
        "meta_norad_cat_id": 65941,
        "meta_element_set_no": 999,
        "meta_rev_at_epoch": 971,
        "meta_bstar": 0.00099850147,
        "meta_mean_motion_dot": 0.00080384,
        "meta_mean_motion_ddot": 0,
        "tle_line1": "1 65941U 98067XN  25345.81546873  .00080384  00000+0  99850-3 0  9992",
        "tle_line2": "2 65941  51.6283 144.6232 0001479 240.6156 119.4690 15.59284629  9717"
      },
      "geometry": {
        "type": "Point",
        "coordinates": [
          -50.44127383033044,
          14.353201785036687
        ]
      }
    },
    {
      "type": "Feature",
      "properties": {
        "norad_id": 65942,
        "name": "BOTAN",
        "group": "stations",
        "lat": 38.81348106666504,
        "lon": -79.0191756028483,
        "alt_km": 375.0530758435716,
        "timestamp": "2025-12-12T11:38:30.189860+00:00",
        "meta_object_name": "BOTAN",
        "meta_object_id": "1998-067XP",
        "meta_epoch": "2025-12-11T19:45:11.743776",
        "meta_mean_motion": 15.62613075,
        "meta_eccentricity": 0.00032624,
        "meta_inclination": 51.6277,
        "meta_ra_of_asc_node": 143.9237,
        "meta_arg_of_pericenter": 230.4423,
        "meta_mean_anomaly": 129.6283,
        "meta_ephemeris_type": 0,
        "meta_classification_type": "U",
        "meta_norad_cat_id": 65942,
        "meta_element_set_no": 999,
        "meta_rev_at_epoch": 972,
        "meta_bstar": 0.0013163982,
        "meta_mean_motion_dot": 0.00121329,
        "meta_mean_motion_ddot": 0,
        "tle_line1": "1 65942U 98067XP  25345.82305259  .00121329  00000+0  13164-2 0  9993",
        "tle_line2": "2 65942  51.6277 143.9237 0003262 230.4423 129.6283 15.62613075  9721"
      },
      "geometry": {
        "type": "Point",
        "coordinates": [
          -79.0191756028483,
          38.81348106666504
        ]
      }
    },
    {
      "type": "Feature",
      "properties": {
        "norad_id": 65943,
        "name": "E-KAGAKU-1",
        "group": "stations",
        "lat": 14.182198156411552,
        "lon": -50.30237928816829,
        "alt_km": 385.21582583009695,
        "timestamp": "2025-12-12T11:38:30.189870+00:00",
        "meta_object_name": "E-KAGAKU-1",
        "meta_object_id": "1998-067XQ",
        "meta_epoch": "2025-12-10T06:39:08.237952",
        "meta_mean_motion": 15.5900432,
        "meta_eccentricity": 0.00052507,
        "meta_inclination": 51.6298,
        "meta_ra_of_asc_node": 152.3458,
        "meta_arg_of_pericenter": 191.2269,
        "meta_mean_anomaly": 168.8608,
        "meta_ephemeris_type": 0,
        "meta_classification_type": "U",
        "meta_norad_cat_id": 65943,
        "meta_element_set_no": 999,
        "meta_rev_at_epoch": 947,
        "meta_bstar": 0.0012588803,
        "meta_mean_motion_dot": 0.00100705,
        "meta_mean_motion_ddot": 0,
        "tle_line1": "1 65943U 98067XQ  25344.27717868  .00100705  00000+0  12589-2 0  9990",
        "tle_line2": "2 65943  51.6298 152.3458 0005250 191.2269 168.8608 15.59004320  9476"
      },
      "geometry": {
        "type": "Point",
        "coordinates": [
          -50.30237928816829,
          14.182198156411552
        ]
      }
    },
    {
      "type": "Feature",
      "properties": {
        "norad_id": 66052,
        "name": "HRC MONOBLOCK CAMERA",
        "group": "stations",
        "lat": 22.898360574952225,
        "lon": -56.776336332859195,
        "alt_km": 400.1410592065213,
        "timestamp": "2025-12-12T11:38:30.189881+00:00",
        "meta_object_name": "HRC MONOBLOCK CAMERA",
        "meta_object_id": "1998-067XR",
        "meta_epoch": "2025-12-12T01:44:18.858336",
        "meta_mean_motion": 15.54060412,
        "meta_eccentricity": 0.0003436,
        "meta_inclination": 51.6287,
        "meta_ra_of_asc_node": 144.8345,
        "meta_arg_of_pericenter": 180.6956,
        "meta_mean_anomaly": 179.403,
        "meta_ephemeris_type": 0,
        "meta_classification_type": "U",
        "meta_norad_cat_id": 66052,
        "meta_element_set_no": 999,
        "meta_rev_at_epoch": 873,
        "meta_bstar": 0.00072873,
        "meta_mean_motion_dot": 0.00047939,
        "meta_mean_motion_ddot": 0,
        "tle_line1": "1 66052U 98067XR  25346.07244049  .00047939  00000+0  72873-3 0  9990",
        "tle_line2": "2 66052  51.6287 144.8345 0003436 180.6956 179.4030 15.54060412  8730"
      },
      "geometry": {
        "type": "Point",
        "coordinates": [
          -56.776336332859195,
          22.898360574952225
        ]
      }
    }
  ]
}